<?xml version="1.0" encoding="UTF-8"?>
<ndm xmlns:xsi="http://www.w3.org/2001/XMLSchema-instance" xsi:noNamespaceSchemaLocation="https://sanaregistry.org/r/ndmxml_unqualified/ndmxml-2.0.0-master-2.0.xsd">
<omm id="CCSDS_OMM_VERS" version="2.0">
<header><CREATION_DATE/><ORIGINATOR/></header><body><segment><metadata><OBJECT_NAME>ONEWEB-0171</OBJECT_NAME><OBJECT_ID>2021-025AE</OBJECT_ID><CENTER_NAME>EARTH</CENTER_NAME><REF_FRAME>TEME</REF_FRAME><TIME_SYSTEM>UTC</TIME_SYSTEM><MEAN_ELEMENT_THEORY>SGP4</MEAN_ELEMENT_THEORY></metadata><data><meanElements><EPOCH>2024-08-15T08:25:03.219744</EPOCH><MEAN_MOTION>13.13472172</MEAN_MOTION><ECCENTRICITY>.0001661</ECCENTRICITY><INCLINATION>87.8883</INCLINATION><RA_OF_ASC_NODE>93.7594</RA_OF_ASC_NODE><ARG_OF_PERICENTER>83.3704</ARG_OF_PERICENTER><MEAN_ANOMALY>276.7614</MEAN_ANOMALY></meanElements><tleParameters><EPHEMERIS_TYPE>0</EPHEMERIS_TYPE><CLASSIFICATION_TYPE>U</CLASSIFICATION_TYPE><NORAD_CAT_ID>48070</NORAD_CAT_ID><ELEMENT_SET_NO>999</ELEMENT_SET_NO><REV_AT_EPOCH>16555</REV_AT_EPOCH><BSTAR>-.62167E-3</BSTAR><MEAN_MOTION_DOT>-.214E-5</MEAN_MOTION_DOT><MEAN_MOTION_DDOT>0</MEAN_MOTION_DDOT></tleParameters></data></segment></body></omm>
<omm id="CCSDS_OMM_VERS" version="2.0">
<header><CREATION_DATE/><ORIGINATOR/></header><body><segment><metadata><OBJECT_NAME>ONEWEB-0172</OBJECT_NAME><OBJECT_ID>2021-025AF</OBJECT_ID><CENTER_NAME>EARTH</CENTER_NAME><REF_FRAME>TEME</REF_FRAME><TIME_SYSTEM>UTC</TIME_SYSTEM><MEAN_ELEMENT_THEORY>SGP4</MEAN_ELEMENT_THEORY></metadata><data><meanElements><EPOCH>2024-08-15T07:55:21.280224</EPOCH><MEAN_MOTION>13.13469931</MEAN_MOTION><ECCENTRICITY>.0001659</ECCENTRICITY><INCLINATION>87.8885</INCLINATION><RA_OF_ASC_NODE>93.7303</RA_OF_ASC_NODE><ARG_OF_PERICENTER>85.0630</ARG_OF_PERICENTER><MEAN_ANOMALY>275.0689</MEAN_ANOMALY></meanElements><tleParameters><EPHEMERIS_TYPE>0</EPHEMERIS_TYPE><CLASSIFICATION_TYPE>U</CLASSIFICATION_TYPE><NORAD_CAT_ID>48071</NORAD_CAT_ID><ELEMENT_SET_NO>999</ELEMENT_SET_NO><REV_AT_EPOCH>16644</REV_AT_EPOCH><BSTAR>.18573E-3</BSTAR><MEAN_MOTION_DOT>.81E-6</MEAN_MOTION_DOT><MEAN_MOTION_DDOT>0</MEAN_MOTION_DDOT></tleParameters></data></segment></body></omm>
<omm id="CCSDS_OMM_VERS" version="2.0">
<header><CREATION_DATE/><ORIGINATOR/></header><body><segment><metadata><OBJECT_NAME>ONEWEB-0174</OBJECT_NAME><OBJECT_ID>2021-025AG</OBJECT_ID><CENTER_NAME>EARTH</CENTER_NAME><REF_FRAME>TEME</REF_FRAME><TIME_SYSTEM>UTC</TIME_SYSTEM><MEAN_ELEMENT_THEORY>SGP4</MEAN_ELEMENT_THEORY></metadata><data><meanElements><EPOCH>2024-08-15T22:07:47.400960</EPOCH><MEAN_MOTION>13.13470845</MEAN_MOTION><ECCENTRICITY>.0001915</ECCENTRICITY><INCLINATION>87.8883</INCLINATION><RA_OF_ASC_NODE>93.6264</RA_OF_ASC_NODE><ARG_OF_PERICENTER>80.3229</ARG_OF_PERICENTER><MEAN_ANOMALY>279.8117</MEAN_ANOMALY></meanElements><tleParameters><EPHEMERIS_TYPE>0</EPHEMERIS_TYPE><CLASSIFICATION_TYPE>U</CLASSIFICATION_TYPE><NORAD_CAT_ID>48072</NORAD_CAT_ID><ELEMENT_SET_NO>999</ELEMENT_SET_NO><REV_AT_EPOCH>16584</REV_AT_EPOCH><BSTAR>.86575E-3</BSTAR><MEAN_MOTION_DOT>.329E-5</MEAN_MOTION_DOT><MEAN_MOTION_DDOT>0</MEAN_MOTION_DDOT></tleParameters></data></segment></body></omm>
<omm id="CCSDS_OMM_VERS" version="2.0">
<header><CREATION_DATE/><ORIGINATOR/></header><body><segment><metadata><OBJECT_NAME>ONEWEB-0175</OBJECT_NAME><OBJECT_ID>2021-025AH</OBJECT_ID><CENTER_NAME>EARTH</CENTER_NAME><REF_FRAME>TEME</REF_FRAME><TIME_SYSTEM>UTC</TIME_SYSTEM><MEAN_ELEMENT_THEORY>SGP4</MEAN_ELEMENT_THEORY></metadata><data><meanElements><EPOCH>2024-08-15T08:11:20.914656</EPOCH><MEAN_MOTION>13.13470165</MEAN_MOTION><ECCENTRICITY>.0001402</ECCENTRICITY><INCLINATION>87.8876</INCLINATION><RA_OF_ASC_NODE>93.7273</RA_OF_ASC_NODE><ARG_OF_PERICENTER>80.6254</ARG_OF_PERICENTER><MEAN_ANOMALY>279.5034</MEAN_ANOMALY></meanElements><tleParameters><EPHEMERIS_TYPE>0</EPHEMERIS_TYPE><CLASSIFICATION_TYPE>U</CLASSIFICATION_TYPE><NORAD_CAT_ID>48073</NORAD_CAT_ID><ELEMENT_SET_NO>999</ELEMENT_SET_NO><REV_AT_EPOCH>16542</REV_AT_EPOCH><BSTAR>-.42755E-3</BSTAR><MEAN_MOTION_DOT>-.143E-5</MEAN_MOTION_DOT><MEAN_MOTION_DDOT>0</MEAN_MOTION_DDOT></tleParameters></data></segment></body></omm>
<omm id="CCSDS_OMM_VERS" version="2.0">
<header><CREATION_DATE/><ORIGINATOR/></header><body><segment><metadata><OBJECT_NAME>ONEWEB-0177</OBJECT_NAME><OBJECT_ID>2021-025AJ</OBJECT_ID><CENTER_NAME>EARTH</CENTER_NAME><REF_FRAME>TEME</REF_FRAME><TIME_SYSTEM>UTC</TIME_SYSTEM><MEAN_ELEMENT_THEORY>SGP4</MEAN_ELEMENT_THEORY></metadata><data><meanElements><EPOCH>2024-08-15T21:17:30.539328</EPOCH><MEAN_MOTION>13.13468913</MEAN_MOTION><ECCENTRICITY>.0001974</ECCENTRICITY><INCLINATION>87.8877</INCLINATION><RA_OF_ASC_NODE>93.6271</RA_OF_ASC_NODE><ARG_OF_PERICENTER>91.5397</ARG_OF_PERICENTER><MEAN_ANOMALY>268.5959</MEAN_ANOMALY></meanElements><tleParameters><EPHEMERIS_TYPE>0</EPHEMERIS_TYPE><CLASSIFICATION_TYPE>U</CLASSIFICATION_TYPE><NORAD_CAT_ID>48074</NORAD_CAT_ID><ELEMENT_SET_NO>999</ELEMENT_SET_NO><REV_AT_EPOCH>16568</REV_AT_EPOCH><BSTAR>-.84243E-3</BSTAR><MEAN_MOTION_DOT>-.295E-5</MEAN_MOTION_DOT><MEAN_MOTION_DDOT>0</MEAN_MOTION_DDOT></tleParameters></data></segment></body></omm>
<omm id="CCSDS_OMM_VERS" version="2.0">
<header><CREATION_DATE/><ORIGINATOR/></header><body><segment><metadata><OBJECT_NAME>ONEWEB-0178</OBJECT_NAME><OBJECT_ID>2021-025AK</OBJECT_ID><CENTER_NAME>EARTH</CENTER_NAME><REF_FRAME>TEME</REF_FRAME><TIME_SYSTEM>UTC</TIME_SYSTEM><MEAN_ELEMENT_THEORY>SGP4</MEAN_ELEMENT_THEORY></metadata><data><meanElements><EPOCH>2024-08-15T21:42:51.112800</EPOCH><MEAN_MOTION>13.13470178</MEAN_MOTION><ECCENTRICITY>.0001851</ECCENTRICITY><INCLINATION>87.8885</INCLINATION><RA_OF_ASC_NODE>93.6455</RA_OF_ASC_NODE><ARG_OF_PERICENTER>86.2155</ARG_OF_PERICENTER><MEAN_ANOMALY>273.9185</MEAN_ANOMALY></meanElements><tleParameters><EPHEMERIS_TYPE>0</EPHEMERIS_TYPE><CLASSIFICATION_TYPE>U</CLASSIFICATION_TYPE><NORAD_CAT_ID>48075</NORAD_CAT_ID><ELEMENT_SET_NO>999</ELEMENT_SET_NO><REV_AT_EPOCH>16573</REV_AT_EPOCH><BSTAR>.55634E-4</BSTAR><MEAN_MOTION_DOT>.33E-6</MEAN_MOTION_DOT><MEAN_MOTION_DDOT>0</MEAN_MOTION_DDOT></tleParameters></data></segment></body></omm>
<omm id="CCSDS_OMM_VERS" version="2.0">
<header><CREATION_DATE/><ORIGINATOR/></header><body><segment><metadata><OBJECT_NAME>ONEWEB-0108</OBJECT_NAME><OBJECT_ID>2021-025AL</OBJECT_ID><CENTER_NAME>EARTH</CENTER_NAME><REF_FRAME>TEME</REF_FRAME><TIME_SYSTEM>UTC</TIME_SYSTEM><MEAN_ELEMENT_THEORY>SGP4</MEAN_ELEMENT_THEORY></metadata><data><meanElements><EPOCH>2024-08-15T07:57:38.409120</EPOCH><MEAN_MOTION>13.13469563</MEAN_MOTION><ECCENTRICITY>.0001942</ECCENTRICITY><INCLINATION>87.8881</INCLINATION><RA_OF_ASC_NODE>93.7352</RA_OF_ASC_NODE><ARG_OF_PERICENTER>74.9079</ARG_OF_PERICENTER><MEAN_ANOMALY>285.2265</MEAN_ANOMALY></meanElements><tleParameters><EPHEMERIS_TYPE>0</EPHEMERIS_TYPE><CLASSIFICATION_TYPE>U</CLASSIFICATION_TYPE><NORAD_CAT_ID>48076</NORAD_CAT_ID><ELEMENT_SET_NO>999</ELEMENT_SET_NO><REV_AT_EPOCH>16558</REV_AT_EPOCH><BSTAR>.9227E-4</BSTAR><MEAN_MOTION_DOT>.46E-6</MEAN_MOTION_DOT><MEAN_MOTION_DDOT>0</MEAN_MOTION_DDOT></tleParameters></data></segment></body></omm>
<omm id="CCSDS_OMM_VERS" version="2.0">
<header><CREATION_DATE/><ORIGINATOR/></header><body><segment><metadata><OBJECT_NAME>ONEWEB-0169</OBJECT_NAME><OBJECT_ID>2021-025AM</OBJECT_ID><CENTER_NAME>EARTH</CENTER_NAME><REF_FRAME>TEME</REF_FRAME><TIME_SYSTEM>UTC</TIME_SYSTEM><MEAN_ELEMENT_THEORY>SGP4</MEAN_ELEMENT_THEORY></metadata><data><meanElements><EPOCH>2024-08-15T08:43:20.777088</EPOCH><MEAN_MOTION>13.13470712</MEAN_MOTION><ECCENTRICITY>.0001973</ECCENTRICITY><INCLINATION>87.8877</INCLINATION><RA_OF_ASC_NODE>93.7401</RA_OF_ASC_NODE><ARG_OF_PERICENTER>75.8872</ARG_OF_PERICENTER><MEAN_ANOMALY>284.2476</MEAN_ANOMALY></meanElements><tleParameters><EPHEMERIS_TYPE>0</EPHEMERIS_TYPE><CLASSIFICATION_TYPE>U</CLASSIFICATION_TYPE><NORAD_CAT_ID>48077</NORAD_CAT_ID><ELEMENT_SET_NO>999</ELEMENT_SET_NO><REV_AT_EPOCH>16424</REV_AT_EPOCH><BSTAR>-.56389E-3</BSTAR><MEAN_MOTION_DOT>-.193E-5</MEAN_MOTION_DOT><MEAN_MOTION_DDOT>0</MEAN_MOTION_DDOT></tleParameters></data></segment></body></omm>

</ndm>
