ONEWEB-0171             
1 48070U 21025AE  24228.35073171 -.00000214  00000+0 -62167-3 0  9997
2 48070  87.8883  93.7594 0001661  83.3704 276.7614 13.13472172165555
ONEWEB-0172             
1 48071U 21025AF  24228.33010741  .00000081  00000+0  18573-3 0  9992
2 48071  87.8885  93.7303 0001659  85.0630 275.0689 13.13469931166442
ONEWEB-0174             
1 48072U 21025AG  24228.92207640  .00000329  00000+0  86575-3 0  9996
2 48072  87.8883  93.6264 0001915  80.3229 279.8117 13.13470845165840
ONEWEB-0175             
1 48073U 21025AH  24228.34121429 -.00000143  00000+0 -42755-3 0  9991
2 48073  87.8876  93.7273 0001402  80.6254 279.5034 13.13470165165420
ONEWEB-0177             
1 48074U 21025AJ  24228.88715902 -.00000295  00000+0 -84243-3 0  9992
2 48074  87.8877  93.6271 0001974  91.5397 268.5959 13.13468913165682
ONEWEB-0178             
1 48075U 21025AK  24228.90475825  .00000033  00000+0  55634-4 0  9994
2 48075  87.8885  93.6455 0001851  86.2155 273.9185 13.13470178165736
ONEWEB-0108             
1 48076U 21025AL  24228.33169455  .00000046  00000+0  92270-4 0  9992
2 48076  87.8881  93.7352 0001942  74.9079 285.2265 13.13469563165584
ONEWEB-0169             
1 48077U 21025AM  24228.36343492 -.00000193  00000+0 -56389-3 0  9996
2 48077  87.8877  93.7401 0001973  75.8872 284.2476 13.13470712164243
